{
  "type": "FeatureCollection",
  "features": [
    {
      "type": "Feature",
      "properties": {
        "norad_id": 34814,
        "name": "COSMOS 2251 DEB",
        "group": "cosmos-2251-debris",
        "lat": -40.071557571582105,
        "lon": -37.25712331205391,
        "alt_km": 775.2769359503582,
        "timestamp": "2025-12-06T14:35:37.521304+00:00",
        "meta_object_name": "COSMOS 2251 DEB",
        "meta_object_id": "1993-036ABD",
        "meta_epoch": "2025-12-06T06:32:24.978912",
        "meta_mean_motion": 14.36849213,
        "meta_eccentricity": 0.00566347,
        "meta_inclination": 73.8955,
        "meta_ra_of_asc_node": 337.4307,
        "meta_arg_of_pericenter": 228.0837,
        "meta_mean_anomaly": 154.2293,
        "meta_ephemeris_type": 0,
        "meta_classification_type": "U",
        "meta_norad_cat_id": 34814,
        "meta_element_set_no": 999,
        "meta_rev_at_epoch": 87240,
        "meta_bstar": 0.0014993778,
        "meta_mean_motion_dot": 4.489e-05,
        "meta_mean_motion_ddot": 0,
        "tle_line1": "1 34814U 93036ABD 25340.27251133  .00004489  00000+0  14994-2 0  9992",
        "tle_line2": "2 34814  73.8955 337.4307 0056634 228.0837 154.2293 14.36849213872408"
      },
      "geometry": {
        "type": "Point",
        "coordinates": [
          -37.25712331205391,
          -40.071557571582105
        ]
      }
    },
    {
      "type": "Feature",
      "properties": {
        "norad_id": 34815,
        "name": "COSMOS 2251 DEB",
        "group": "cosmos-2251-debris",
        "lat": -71.25160404050125,
        "lon": -163.59666337583457,
        "alt_km": 612.2643489980301,
        "timestamp": "2025-12-06T14:35:37.521315+00:00",
        "meta_object_name": "COSMOS 2251 DEB",
        "meta_object_id": "1993-036ABE",
        "meta_epoch": "2025-12-06T00:19:57.803808",
        "meta_mean_motion": 14.7816615,
        "meta_eccentricity": 0.00589879,
        "meta_inclination": 74.0464,
        "meta_ra_of_asc_node": 255.0048,
        "meta_arg_of_pericenter": 325.5684,
        "meta_mean_anomaly": 34.1674,
        "meta_ephemeris_type": 0,
        "meta_classification_type": "U",
        "meta_norad_cat_id": 34815,
        "meta_element_set_no": 999,
        "meta_rev_at_epoch": 88528,
        "meta_bstar": 0.0016313721,
        "meta_mean_motion_dot": 0.00012154,
        "meta_mean_motion_ddot": 0,
        "tle_line1": "1 34815U 93036ABE 25340.01386347  .00012154  00000+0  16314-2 0  9997",
        "tle_line2": "2 34815  74.0464 255.0048 0058987 325.5684  34.1674 14.78166150885287"
      },
      "geometry": {
        "type": "Point",
        "coordinates": [
          -163.59666337583457,
          -71.25160404050125
        ]
      }
    },
    {
      "type": "Feature",
      "properties": {
        "norad_id": 34816,
        "name": "COSMOS 2251 DEB",
        "group": "cosmos-2251-debris",
        "lat": -0.38312066241965015,
        "lon": 153.015868506186,
        "alt_km": 1255.8836654234328,
        "timestamp": "2025-12-06T14:35:37.521325+00:00",
        "meta_object_name": "COSMOS 2251 DEB",
        "meta_object_id": "1993-036ABF",
        "meta_epoch": "2025-12-06T06:38:33.487872",
        "meta_mean_motion": 13.58296174,
        "meta_eccentricity": 0.03736457,
        "meta_inclination": 73.886,
        "meta_ra_of_asc_node": 153.667,
        "meta_arg_of_pericenter": 219.2558,
        "meta_mean_anomaly": 318.307,
        "meta_ephemeris_type": 0,
        "meta_classification_type": "U",
        "meta_norad_cat_id": 34816,
        "meta_element_set_no": 999,
        "meta_rev_at_epoch": 82695,
        "meta_bstar": 0.001873391,
        "meta_mean_motion_dot": 2.123e-05,
        "meta_mean_motion_ddot": 0,
        "tle_line1": "1 34816U 93036ABF 25340.27677648  .00002123  00000+0  18734-2 0  9996",
        "tle_line2": "2 34816  73.8860 153.6670 0373645 219.2558 318.3070 13.58296174826952"
      },
      "geometry": {
        "type": "Point",
        "coordinates": [
          153.015868506186,
          -0.38312066241965015
        ]
      }
    },
    {
      "type": "Feature",
      "properties": {
        "norad_id": 34818,
        "name": "COSMOS 2251 DEB",
        "group": "cosmos-2251-debris",
        "lat": 25.944954835261612,
        "lon": -43.77989721871056,
        "alt_km": 750.2777297129769,
        "timestamp": "2025-12-06T14:35:37.521336+00:00",
        "meta_object_name": "COSMOS 2251 DEB",
        "meta_object_id": "1993-036ABH",
        "meta_epoch": "2025-12-06T04:31:32.900736",
        "meta_mean_motion": 14.36952878,
        "meta_eccentricity": 0.00238693,
        "meta_inclination": 74.0354,
        "meta_ra_of_asc_node": 308.985,
        "meta_arg_of_pericenter": 26.3129,
        "meta_mean_anomaly": 351.6443,
        "meta_ephemeris_type": 0,
        "meta_classification_type": "U",
        "meta_norad_cat_id": 34818,
        "meta_element_set_no": 999,
        "meta_rev_at_epoch": 87276,
        "meta_bstar": 0.00040352155,
        "meta_mean_motion_dot": 1.173e-05,
        "meta_mean_motion_ddot": 0,
        "tle_line1": "1 34818U 93036ABH 25340.18857524  .00001173  00000+0  40352-3 0  9997",
        "tle_line2": "2 34818  74.0354 308.9850 0023869  26.3129 351.6443 14.36952878872762"
      },
      "geometry": {
        "type": "Point",
        "coordinates": [
          -43.77989721871056,
          25.944954835261612
        ]
      }
    },
    {
      "type": "Feature",
      "properties": {
        "norad_id": 34819,
        "name": "COSMOS 2251 DEB",
        "group": "cosmos-2251-debris",
        "lat": 65.38757420243695,
        "lon": -166.82301872273885,
        "alt_km": 685.3538040206249,
        "timestamp": "2025-12-06T14:35:37.521346+00:00",
        "meta_object_name": "COSMOS 2251 DEB",
        "meta_object_id": "1993-036ABJ",
        "meta_epoch": "2025-12-05T18:41:04.482240",
        "meta_mean_motion": 14.63801397,
        "meta_eccentricity": 0.00159335,
        "meta_inclination": 74.0166,
        "meta_ra_of_asc_node": 156.0388,
        "meta_arg_of_pericenter": 249.6845,
        "meta_mean_anomaly": 131.7067,
        "meta_ephemeris_type": 0,
        "meta_classification_type": "U",
        "meta_norad_cat_id": 34819,
        "meta_element_set_no": 999,
        "meta_rev_at_epoch": 88127,
        "meta_bstar": 0.0025651513,
        "meta_mean_motion_dot": 0.00013406,
        "meta_mean_motion_ddot": 0,
        "tle_line1": "1 34819U 93036ABJ 25339.77852410  .00013406  00000+0  25652-2 0  9997",
        "tle_line2": "2 34819  74.0166 156.0388 0015933 249.6845 131.7067 14.63801397881274"
      },
      "geometry": {
        "type": "Point",
        "coordinates": [
          -166.82301872273885,
          65.38757420243695
        ]
      }
    },
    {
      "type": "Feature",
      "properties": {
        "norad_id": 34823,
        "name": "COSMOS 2251 DEB",
        "group": "cosmos-2251-debris",
        "lat": -39.811079530849376,
        "lon": 100.08798815866022,
        "alt_km": 766.6310523906086,
        "timestamp": "2025-12-06T14:35:37.521357+00:00",
        "meta_object_name": "COSMOS 2251 DEB",
        "meta_object_id": "1993-036ABN",
        "meta_epoch": "2025-12-05T15:41:05.224416",
        "meta_mean_motion": 14.54842007,
        "meta_eccentricity": 0.0155335,
        "meta_inclination": 74.0406,
        "meta_ra_of_asc_node": 115.6932,
        "meta_arg_of_pericenter": 202.2054,
        "meta_mean_anomaly": 157.2336,
        "meta_ephemeris_type": 0,
        "meta_classification_type": "U",
        "meta_norad_cat_id": 34823,
        "meta_element_set_no": 999,
        "meta_rev_at_epoch": 88278,
        "meta_bstar": 0.0016605928,
        "meta_mean_motion_dot": 8.358e-05,
        "meta_mean_motion_ddot": 0,
        "tle_line1": "1 34823U 93036ABN 25339.65353269  .00008358  00000+0  16606-2 0  9996",
        "tle_line2": "2 34823  74.0406 115.6932 0155335 202.2054 157.2336 14.54842007882782"
      },
      "geometry": {
        "type": "Point",
        "coordinates": [
          100.08798815866022,
          -39.811079530849376
        ]
      }
    },
    {
      "type": "Feature",
      "properties": {
        "norad_id": 34845,
        "name": "COSMOS 2251 DEB",
        "group": "cosmos-2251-debris",
        "lat": 52.4981192670846,
        "lon": -42.12004804113743,
        "alt_km": 748.8973759025785,
        "timestamp": "2025-12-06T14:35:37.521367+00:00",
        "meta_object_name": "COSMOS 2251 DEB",
        "meta_object_id": "1993-036ABP",
        "meta_epoch": "2025-11-28T06:44:43.474272",
        "meta_mean_motion": 14.45815545,
        "meta_eccentricity": 0.00217969,
        "meta_inclination": 74.024,
        "meta_ra_of_asc_node": 175.3373,
        "meta_arg_of_pericenter": 338.6212,
        "meta_mean_anomaly": 21.4033,
        "meta_ephemeris_type": 0,
        "meta_classification_type": "U",
        "meta_norad_cat_id": 34845,
        "meta_element_set_no": 999,
        "meta_rev_at_epoch": 87257,
        "meta_bstar": 0.00025523358,
        "meta_mean_motion_dot": 8.81e-06,
        "meta_mean_motion_ddot": 0,
        "tle_line1": "1 34845U 93036ABP 25332.28105873  .00000881  00000+0  25523-3 0  9990",
        "tle_line2": "2 34845  74.0240 175.3373 0021796 338.6212  21.4033 14.45815545872576"
      },
      "geometry": {
        "type": "Point",
        "coordinates": [
          -42.12004804113743,
          52.4981192670846
        ]
      }
    }
  ]
}